{
  "type": "FeatureCollection",
  "features": [
    {
      "type": "Feature",
      "properties": {
        "norad_id": 30118,
        "name": "FENGYUN 1C DEB",
        "group": "fengyun-1c-debris",
        "lat": -44.3174803521848,
        "lon": 159.71819063505149,
        "alt_km": 940.5820552754349,
        "timestamp": "2025-12-10T14:53:37.366338+00:00",
        "meta_object_name": "FENGYUN 1C DEB",
        "meta_object_id": "1999-025RX",
        "meta_epoch": "2025-12-10T00:14:51.580608",
        "meta_mean_motion": 14.051214,
        "meta_eccentricity": 0.00853457,
        "meta_inclination": 98.8033,
        "meta_ra_of_asc_node": 347.8291,
        "meta_arg_of_pericenter": 67.3899,
        "meta_mean_anomaly": 311.95,
        "meta_ephemeris_type": 0,
        "meta_classification_type": "U",
        "meta_norad_cat_id": 30118,
        "meta_element_set_no": 999,
        "meta_rev_at_epoch": 96893,
        "meta_bstar": 0.00025160269,
        "meta_mean_motion_dot": 3.77e-06,
        "meta_mean_motion_ddot": 0,
        "tle_line1": "1 30118U 99025RX  25344.01031922  .00000377  00000+0  25160-3 0  9997",
        "tle_line2": "2 30118  98.8033 347.8291 0085345  67.3899 311.9500 14.05121400968939"
      },
      "geometry": {
        "type": "Point",
        "coordinates": [
          159.71819063505149,
          -44.3174803521848
        ]
      }
    },
    {
      "type": "Feature",
      "properties": {
        "norad_id": 30119,
        "name": "FENGYUN 1C DEB",
        "group": "fengyun-1c-debris",
        "lat": 33.00084495609012,
        "lon": -26.378534708834987,
        "alt_km": 821.5703209874655,
        "timestamp": "2025-12-10T14:53:37.366347+00:00",
        "meta_object_name": "FENGYUN 1C DEB",
        "meta_object_id": "1999-025RY",
        "meta_epoch": "2025-12-09T12:19:29.183808",
        "meta_mean_motion": 14.22198929,
        "meta_eccentricity": 0.01312678,
        "meta_inclination": 97.9208,
        "meta_ra_of_asc_node": 337.8136,
        "meta_arg_of_pericenter": 302.4949,
        "meta_mean_anomaly": 184.7536,
        "meta_ephemeris_type": 0,
        "meta_classification_type": "U",
        "meta_norad_cat_id": 30119,
        "meta_element_set_no": 999,
        "meta_rev_at_epoch": 97134,
        "meta_bstar": 0.0027033705,
        "meta_mean_motion_dot": 6.513e-05,
        "meta_mean_motion_ddot": 0,
        "tle_line1": "1 30119U 99025RY  25343.51353222  .00006513  00000+0  27034-2 0  9991",
        "tle_line2": "2 30119  97.9208 337.8136 0131267 302.4949 184.7536 14.22198929971348"
      },
      "geometry": {
        "type": "Point",
        "coordinates": [
          -26.378534708834987,
          33.00084495609012
        ]
      }
    },
    {
      "type": "Feature",
      "properties": {
        "norad_id": 30120,
        "name": "FENGYUN 1C DEB",
        "group": "fengyun-1c-debris",
        "lat": -47.00277028096314,
        "lon": 76.1109660621902,
        "alt_km": 810.1757796894408,
        "timestamp": "2025-12-10T14:53:37.366356+00:00",
        "meta_object_name": "FENGYUN 1C DEB",
        "meta_object_id": "1999-025RZ",
        "meta_epoch": "2025-12-10T05:17:17.339712",
        "meta_mean_motion": 14.27565504,
        "meta_eccentricity": 0.00634713,
        "meta_inclination": 98.8516,
        "meta_ra_of_asc_node": 66.0851,
        "meta_arg_of_pericenter": 218.6523,
        "meta_mean_anomaly": 197.2309,
        "meta_ephemeris_type": 0,
        "meta_classification_type": "U",
        "meta_norad_cat_id": 30120,
        "meta_element_set_no": 999,
        "meta_rev_at_epoch": 97335,
        "meta_bstar": 0.003018467,
        "meta_mean_motion_dot": 7.548e-05,
        "meta_mean_motion_ddot": 0,
        "tle_line1": "1 30120U 99025RZ  25344.22033958  .00007548  00000+0  30185-2 0  9993",
        "tle_line2": "2 30120  98.8516  66.0851 0063471 218.6523 197.2309 14.27565504973356"
      },
      "geometry": {
        "type": "Point",
        "coordinates": [
          76.1109660621902,
          -47.00277028096314
        ]
      }
    },
    {
      "type": "Feature",
      "properties": {
        "norad_id": 30121,
        "name": "FENGYUN 1C DEB",
        "group": "fengyun-1c-debris",
        "lat": 64.71289338378698,
        "lon": -147.6762465053961,
        "alt_km": 740.2830965256817,
        "timestamp": "2025-12-10T14:53:37.366365+00:00",
        "meta_object_name": "FENGYUN 1C DEB",
        "meta_object_id": "1999-025SA",
        "meta_epoch": "2025-12-10T07:47:16.217664",
        "meta_mean_motion": 14.39944016,
        "meta_eccentricity": 0.00314852,
        "meta_inclination": 102.1656,
        "meta_ra_of_asc_node": 4.7354,
        "meta_arg_of_pericenter": 171.2248,
        "meta_mean_anomaly": 207.338,
        "meta_ephemeris_type": 0,
        "meta_classification_type": "U",
        "meta_norad_cat_id": 30121,
        "meta_element_set_no": 999,
        "meta_rev_at_epoch": 97505,
        "meta_bstar": 0.0031033093,
        "meta_mean_motion_dot": 9.762e-05,
        "meta_mean_motion_ddot": 0,
        "tle_line1": "1 30121U 99025SA  25344.32449326  .00009762  00000+0  31033-2 0  9998",
        "tle_line2": "2 30121 102.1656   4.7354 0031485 171.2248 207.3380 14.39944016975059"
      },
      "geometry": {
        "type": "Point",
        "coordinates": [
          -147.6762465053961,
          64.71289338378698
        ]
      }
    },
    {
      "type": "Feature",
      "properties": {
        "norad_id": 30123,
        "name": "FENGYUN 1C DEB",
        "group": "fengyun-1c-debris",
        "lat": -5.831389322571871,
        "lon": -73.76298193721401,
        "alt_km": 825.4139689857975,
        "timestamp": "2025-12-10T14:53:37.366374+00:00",
        "meta_object_name": "FENGYUN 1C DEB",
        "meta_object_id": "1999-025SC",
        "meta_epoch": "2025-12-10T06:30:02.683296",
        "meta_mean_motion": 14.25936263,
        "meta_eccentricity": 0.02305834,
        "meta_inclination": 96.9262,
        "meta_ra_of_asc_node": 285.2487,
        "meta_arg_of_pericenter": 92.2969,
        "meta_mean_anomaly": 270.4635,
        "meta_ephemeris_type": 0,
        "meta_classification_type": "U",
        "meta_norad_cat_id": 30123,
        "meta_element_set_no": 999,
        "meta_rev_at_epoch": 97212,
        "meta_bstar": 0.0020676034,
        "meta_mean_motion_dot": 6.492e-05,
        "meta_mean_motion_ddot": 0,
        "tle_line1": "1 30123U 99025SC  25344.27086439  .00006492  00000+0  20676-2 0  9994",
        "tle_line2": "2 30123  96.9262 285.2487 0230583  92.2969 270.4635 14.25936263972128"
      },
      "geometry": {
        "type": "Point",
        "coordinates": [
          -73.76298193721401,
          -5.831389322571871
        ]
      }
    },
    {
      "type": "Feature",
      "properties": {
        "norad_id": 30124,
        "name": "FENGYUN 1C DEB",
        "group": "fengyun-1c-debris",
        "lat": 7.575190782394801,
        "lon": 37.2141582515855,
        "alt_km": 870.415250336685,
        "timestamp": "2025-12-10T14:53:37.366383+00:00",
        "meta_object_name": "FENGYUN 1C DEB",
        "meta_object_id": "1999-025SD",
        "meta_epoch": "2025-12-10T03:13:38.081856",
        "meta_mean_motion": 14.14215196,
        "meta_eccentricity": 0.01434118,
        "meta_inclination": 99.1313,
        "meta_ra_of_asc_node": 37.943,
        "meta_arg_of_pericenter": 113.1138,
        "meta_mean_anomaly": 302.806,
        "meta_ephemeris_type": 0,
        "meta_classification_type": "U",
        "meta_norad_cat_id": 30124,
        "meta_element_set_no": 999,
        "meta_rev_at_epoch": 96878,
        "meta_bstar": 0.0011390827,
        "meta_mean_motion_dot": 2.353e-05,
        "meta_mean_motion_ddot": 0,
        "tle_line1": "1 30124U 99025SD  25344.13446854  .00002353  00000+0  11391-2 0  9997",
        "tle_line2": "2 30124  99.1313  37.9430 0143411 113.1138 302.8060 14.14215196968787"
      },
      "geometry": {
        "type": "Point",
        "coordinates": [
          37.2141582515855,
          7.575190782394801
        ]
      }
    },
    {
      "type": "Feature",
      "properties": {
        "norad_id": 30125,
        "name": "FENGYUN 1C DEB",
        "group": "fengyun-1c-debris",
        "lat": 73.94766645645342,
        "lon": -64.3132267036532,
        "alt_km": 899.025196967752,
        "timestamp": "2025-12-10T14:53:37.366392+00:00",
        "meta_object_name": "FENGYUN 1C DEB",
        "meta_object_id": "1999-025SE",
        "meta_epoch": "2025-12-10T06:13:30.965088",
        "meta_mean_motion": 14.22631055,
        "meta_eccentricity": 0.034244,
        "meta_inclination": 98.7236,
        "meta_ra_of_asc_node": 83.0779,
        "meta_arg_of_pericenter": 351.3919,
        "meta_mean_anomaly": 59.7091,
        "meta_ephemeris_type": 0,
        "meta_classification_type": "U",
        "meta_norad_cat_id": 30125,
        "meta_element_set_no": 999,
        "meta_rev_at_epoch": 96886,
        "meta_bstar": 0.00097980754,
        "meta_mean_motion_dot": 3.955e-05,
        "meta_mean_motion_ddot": 0,
        "tle_line1": "1 30125U 99025SE  25344.25938617  .00003955  00000+0  97981-3 0  9993",
        "tle_line2": "2 30125  98.7236  83.0779 0342440 351.3919  59.7091 14.22631055968867"
      },
      "geometry": {
        "type": "Point",
        "coordinates": [
          -64.3132267036532,
          73.94766645645342
        ]
      }
    }
  ]
}